UWE-4                   
1 43880U 18111E   26068.74005968  .00033304  00000+0  83386-3 0  9999
2 43880  97.5841 353.0294 0007531 339.4687  20.6255 15.39989264395442
LEMUR-2-VALHALLA        
1 58900U 24022B   26068.54038264  .00019103  00000+0  53647-3 0  9997
2 58900  97.4228 277.4862 0011228 109.8773 250.3682 15.36522305116951
